*******************************************************************************
Ephemeris / WWW_USER Mon Jul 15 19:29:52 2024 Pasadena, USA      / Horizons    
*******************************************************************************
Target body name: Hale-Bopp (C/1995 O1)           {source: JPL#226}
Center body name: Earth (399)                     {source: DE441}
Center-site name: Gemini South Obs., Cerro Pachon
*******************************************************************************
Start time      : A.D. 2018-Dec-23 23:54:00.0000 UT      
Stop  time      : A.D. 2018-Dec-24 09:30:00.0000 UT      
Step-size       : 1 minutes
*******************************************************************************
Target pole/equ : undefined
Target radii    : 30. km                                                       
Center geodetic : 289.2634, -30.2406227, 2.71233  {E-lon(deg),Lat(deg),Alt(km)}
Center cylindric: 289.2634,5517.21435,-3194.81213 {E-lon(deg),Dxy(km),Dz(km)}
Center pole/equ : ITRF93                          {East-longitude positive}
Center radii    : 6378.137, 6378.137, 6356.752 km {Equator_a, b, pole_c}       
Target primary  : Sun
Vis. interferer : MOON (R_eq= 1737.400) km        {source: DE441}
Rel. light bend : Sun                             {source: DE441}
Rel. lght bnd GM: 1.3271E+11 km^3/s^2                                          
Small-body perts: Yes                             {source: SB441-N16}
Atmos refraction: NO (AIRLESS)
RA format       : HMS
Time format     : CAL 
Calendar mode   : Mixed Julian/Gregorian
RTS-only print  : NO       
EOP file        : eop.240715.p241008                                           
EOP coverage    : DATA-BASED 1962-JAN-20 TO 2024-JUL-15. PREDICTS-> 2024-OCT-07
Units conversion: 1 au= 149597870.700 km, c= 299792.458 km/s, 1 day= 86400.0 s 
Table cut-offs 1: Elevation (-90.0deg=NO ),Airmass (>38.000=NO), Daylight (YES)
Table cut-offs 2: Solar elongation (  0.0,180.0=NO ),Local Hour Angle( 0.0=NO )
Table cut-offs 3: RA/DEC angular rate (     0.0=NO )                           
*******************************************************************************
Initial IAU76/J2000 heliocentric ecliptic osculating elements (au, days, deg.):
  EPOCH=  2459837.5 ! 2022-Sep-15.0000000 (TDB)    RMSW= n.a.                  
   EC= .9949810027633206   QR= .890537663547794    TP= 2450537.1349071441      
   OM= 282.7334213961641   W= 130.4146670659176    IN= 89.28759424740302       
  Equivalent ICRF heliocentric cartesian coordinates (au, au/d):
   X= 3.907631452214869E+00  Y=-1.373895334060347E+00  Z=-4.624358508575312E+01
  VX= 3.778244409519935E-04 VY=-5.803173067116371E-04 VZ=-3.255716412104052E-03
Comet physical (GM= km^3/s^2; RAD= km):                                        
   GM= n.a.                RAD= 30.                                            
   M1=  4.8      M2=  n.a.     k1=  4.     k2= n.a.     PHCOF= n.a.            
*******************************************************************************
 Date__(UT)__HR:MN     R.A._________(ICRF)_________DEC
******************************************************
$$SOE
 2018-Dec-24 06:06  m  22 26 19.638783 -84 57 03.04024
 2018-Dec-24 06:07  m  22 26 19.657565 -84 57 02.98531
 2018-Dec-24 06:08  m  22 26 19.676350 -84 57 02.93039
 2018-Dec-24 06:09  m  22 26 19.695136 -84 57 02.87546
 2018-Dec-24 06:10  m  22 26 19.713925 -84 57 02.82054
 2018-Dec-24 06:11  m  22 26 19.732716 -84 57 02.76562
 2018-Dec-24 06:12  m  22 26 19.751509 -84 57 02.71071
 2018-Dec-24 06:13  m  22 26 19.770304 -84 57 02.65579
 2018-Dec-24 06:14  m  22 26 19.789101 -84 57 02.60088
 2018-Dec-24 06:15  m  22 26 19.807900 -84 57 02.54597
 2018-Dec-24 06:16  m  22 26 19.826701 -84 57 02.49107
 2018-Dec-24 06:17  m  22 26 19.845505 -84 57 02.43617
 2018-Dec-24 06:18  m  22 26 19.864310 -84 57 02.38127
 2018-Dec-24 06:19  m  22 26 19.883117 -84 57 02.32637
 2018-Dec-24 06:20  m  22 26 19.901926 -84 57 02.27148
 2018-Dec-24 06:21  m  22 26 19.920738 -84 57 02.21659
 2018-Dec-24 06:22  m  22 26 19.939551 -84 57 02.16170
 2018-Dec-24 06:23  m  22 26 19.958366 -84 57 02.10682
 2018-Dec-24 06:24  m  22 26 19.977184 -84 57 02.05194
 2018-Dec-24 06:25  m  22 26 19.996003 -84 57 01.99706
 2018-Dec-24 06:26  m  22 26 20.014824 -84 57 01.94218
 2018-Dec-24 06:27  m  22 26 20.033647 -84 57 01.88731
 2018-Dec-24 06:28  m  22 26 20.052472 -84 57 01.83244
 2018-Dec-24 06:29  m  22 26 20.071299 -84 57 01.77757
 2018-Dec-24 06:30  m  22 26 20.090128 -84 57 01.72271
 2018-Dec-24 06:31  m  22 26 20.108959 -84 57 01.66784
 2018-Dec-24 06:32  m  22 26 20.127792 -84 57 01.61299
 2018-Dec-24 06:33  m  22 26 20.146627 -84 57 01.55813
 2018-Dec-24 06:34  m  22 26 20.165463 -84 57 01.50328
 2018-Dec-24 06:35  m  22 26 20.184302 -84 57 01.44843
 2018-Dec-24 06:36  m  22 26 20.203142 -84 57 01.39358
 2018-Dec-24 06:37  m  22 26 20.221984 -84 57 01.33874
 2018-Dec-24 06:38  m  22 26 20.240828 -84 57 01.28390
 2018-Dec-24 06:39  m  22 26 20.259674 -84 57 01.22906
 2018-Dec-24 06:40  m  22 26 20.278522 -84 57 01.17423
 2018-Dec-24 06:41  m  22 26 20.297371 -84 57 01.11940
 2018-Dec-24 06:42  m  22 26 20.316223 -84 57 01.06457
 2018-Dec-24 06:43  m  22 26 20.335076 -84 57 01.00974
 2018-Dec-24 06:44  m  22 26 20.353931 -84 57 00.95492
 2018-Dec-24 06:45  m  22 26 20.372788 -84 57 00.90010
 2018-Dec-24 06:46  m  22 26 20.391646 -84 57 00.84529
 2018-Dec-24 06:47  m  22 26 20.410507 -84 57 00.79047
 2018-Dec-24 06:48  m  22 26 20.429369 -84 57 00.73567
 2018-Dec-24 06:49  m  22 26 20.448232 -84 57 00.68086
 2018-Dec-24 06:50  m  22 26 20.467098 -84 57 00.62606
 2018-Dec-24 06:51  m  22 26 20.485965 -84 57 00.57126
 2018-Dec-24 06:52  m  22 26 20.504834 -84 57 00.51646
 2018-Dec-24 06:53  m  22 26 20.523705 -84 57 00.46166
 2018-Dec-24 06:54  m  22 26 20.542577 -84 57 00.40687
 2018-Dec-24 06:55  m  22 26 20.561451 -84 57 00.35209
 2018-Dec-24 06:56  m  22 26 20.580327 -84 57 00.29730
 2018-Dec-24 06:57  m  22 26 20.599204 -84 57 00.24252
 2018-Dec-24 06:58  m  22 26 20.618084 -84 57 00.18774
 2018-Dec-24 06:59  m  22 26 20.636964 -84 57 00.13297
 2018-Dec-24 07:00  m  22 26 20.655847 -84 57 00.07820
 2018-Dec-24 07:01  m  22 26 20.674731 -84 57 00.02343
 2018-Dec-24 07:02  m  22 26 20.693616 -84 56 59.96866
 2018-Dec-24 07:03  m  22 26 20.712504 -84 56 59.91390
 2018-Dec-24 07:04  m  22 26 20.731392 -84 56 59.85914
 2018-Dec-24 07:05  m  22 26 20.750283 -84 56 59.80439
 2018-Dec-24 07:06  m  22 26 20.769175 -84 56 59.74963
 2018-Dec-24 07:07  m  22 26 20.788068 -84 56 59.69489
 2018-Dec-24 07:08  m  22 26 20.806964 -84 56 59.64014
 2018-Dec-24 07:09  m  22 26 20.825860 -84 56 59.58540
 2018-Dec-24 07:10  m  22 26 20.844759 -84 56 59.53066
 2018-Dec-24 07:11  m  22 26 20.863658 -84 56 59.47592
 2018-Dec-24 07:12  m  22 26 20.882560 -84 56 59.42119
 2018-Dec-24 07:13  m  22 26 20.901462 -84 56 59.36646
 2018-Dec-24 07:14  m  22 26 20.920367 -84 56 59.31174
 2018-Dec-24 07:15  m  22 26 20.939272 -84 56 59.25701
 2018-Dec-24 07:16  m  22 26 20.958180 -84 56 59.20229
 2018-Dec-24 07:17  m  22 26 20.977088 -84 56 59.14758
 2018-Dec-24 07:18  m  22 26 20.995999 -84 56 59.09286
 2018-Dec-24 07:19  m  22 26 21.014910 -84 56 59.03816
 2018-Dec-24 07:20  m  22 26 21.033823 -84 56 58.98345
 2018-Dec-24 07:21  m  22 26 21.052738 -84 56 58.92875
 2018-Dec-24 07:22  m  22 26 21.071654 -84 56 58.87405
 2018-Dec-24 07:23  m  22 26 21.090571 -84 56 58.81935
 2018-Dec-24 07:24  m  22 26 21.109490 -84 56 58.76466
 2018-Dec-24 07:25  m  22 26 21.128410 -84 56 58.70997
 2018-Dec-24 07:26  m  22 26 21.147331 -84 56 58.65528
 2018-Dec-24 07:27  m  22 26 21.166254 -84 56 58.60060
 2018-Dec-24 07:28  m  22 26 21.185179 -84 56 58.54592
 2018-Dec-24 07:29  m  22 26 21.204104 -84 56 58.49125
 2018-Dec-24 07:30  m  22 26 21.223031 -84 56 58.43657
 2018-Dec-24 07:31  m  22 26 21.241959 -84 56 58.38191
 2018-Dec-24 07:32  m  22 26 21.260889 -84 56 58.32724
 2018-Dec-24 07:33  m  22 26 21.279820 -84 56 58.27258
 2018-Dec-24 07:34  m  22 26 21.298752 -84 56 58.21792
 2018-Dec-24 07:35  m  22 26 21.317685 -84 56 58.16326
 2018-Dec-24 07:36  m  22 26 21.336620 -84 56 58.10861
 2018-Dec-24 07:37  m  22 26 21.355556 -84 56 58.05397
 2018-Dec-24 07:38  m  22 26 21.374493 -84 56 57.99932
 2018-Dec-24 07:39  m  22 26 21.393431 -84 56 57.94468
 2018-Dec-24 07:40  m  22 26 21.412371 -84 56 57.89004
 2018-Dec-24 07:41  m  22 26 21.431312 -84 56 57.83541
 2018-Dec-24 07:42  m  22 26 21.450254 -84 56 57.78078
 2018-Dec-24 07:43  m  22 26 21.469197 -84 56 57.72615
 2018-Dec-24 07:44  m  22 26 21.488141 -84 56 57.67152
 2018-Dec-24 07:45  m  22 26 21.507087 -84 56 57.61690
 2018-Dec-24 07:46  m  22 26 21.526034 -84 56 57.56229
 2018-Dec-24 07:47  m  22 26 21.544982 -84 56 57.50767
 2018-Dec-24 07:48  m  22 26 21.563931 -84 56 57.45306
 2018-Dec-24 07:49  m  22 26 21.582881 -84 56 57.39846
 2018-Dec-24 07:50  m  22 26 21.601832 -84 56 57.34385
 2018-Dec-24 07:51  m  22 26 21.620785 -84 56 57.28925
 2018-Dec-24 07:52  m  22 26 21.639738 -84 56 57.23466
 2018-Dec-24 07:53  m  22 26 21.658693 -84 56 57.18007
 2018-Dec-24 07:54  m  22 26 21.677648 -84 56 57.12548
 2018-Dec-24 07:55  m  22 26 21.696605 -84 56 57.07089
 2018-Dec-24 07:56  m  22 26 21.715563 -84 56 57.01631
 2018-Dec-24 07:57  m  22 26 21.734522 -84 56 56.96173
 2018-Dec-24 07:58  m  22 26 21.753482 -84 56 56.90716
 2018-Dec-24 07:59  m  22 26 21.772443 -84 56 56.85259
 2018-Dec-24 08:00  m  22 26 21.791404 -84 56 56.79802
 2018-Dec-24 08:01  m  22 26 21.810367 -84 56 56.74345
 2018-Dec-24 08:02  m  22 26 21.829331 -84 56 56.68889
 2018-Dec-24 08:03 Am  22 26 21.848296 -84 56 56.63434
 2018-Dec-24 08:04 Am  22 26 21.867262 -84 56 56.57978
 2018-Dec-24 08:05 Am  22 26 21.886229 -84 56 56.52523
 2018-Dec-24 08:06 Am  22 26 21.905196 -84 56 56.47069
 2018-Dec-24 08:07 Am  22 26 21.924165 -84 56 56.41614
 2018-Dec-24 08:08 Am  22 26 21.943135 -84 56 56.36160
 2018-Dec-24 08:09 Am  22 26 21.962105 -84 56 56.30707
